HANWHA_L_00001001-429
1 10428U 26294KM  26075.69965278  .00000000  00000+0  00000-0 0  9999
2 10428  97.5000   0.0000 0000000   0.0000  77.0400 15.21936487    13
HANWHA_L_00001001-430
1 10429U 24195JU  26075.69965278  .00000000  00000+0  00000-0 0  9998
2 10429  97.5000   0.0000 0000000   0.0000  77.2200 15.21936487    14
HANWHA_L_00001001-431
1 10430U 23683WL  26075.69965278  .00000000  00000+0  00000-0 0  9991
2 10430  97.5000   0.0000 0000000   0.0000  77.4000 15.21936487    16
HANWHA_L_00001001-432
1 10431U 24365BV  26075.69965278  .00000000  00000+0  00000-0 0  9990
2 10431  97.5000   0.0000 0000000   0.0000  77.5800 15.21936487    16
HANWHA_L_00001001-433
1 10432U 23850XT  26075.69965278  .00000000  00000+0  00000-0 0  9999
2 10432  97.5000   0.0000 0000000   0.0000  77.7600 15.21936487    17
HANWHA_L_00001001-434
1 10433U 26035LB  26075.69965278  .00000000  00000+0  00000-0 0  9998
2 10433  97.5000   0.0000 0000000   0.0000  77.9400 15.21936487    18
HANWHA_L_00001001-435
1 10434U 22906VW  26075.69965278  .00000000  00000+0  00000-0 0  9992
2 10434  97.5000   0.0000 0000000   0.0000  78.1200 15.21936487    10
HANWHA_L_00001001-436
1 10435U 22610JQ  26075.69965278  .00000000  00000+0  00000-0 0  9995
2 10435  97.5000   0.0000 0000000   0.0000  78.3000 15.21936487    11
HANWHA_L_00001001-437
1 10436U 22299KM  26075.69965278  .00000000  00000+0  00000-0 0  9999
2 10436  97.5000   0.0000 0000000   0.0000  78.4800 15.21936487    11
HANWHA_L_00001001-438
1 10437U 24675PU  26075.69965278  .00000000  00000+0  00000-0 0  9990
2 10437  97.5000   0.0000 0000000   0.0000  78.6600 15.21936487    12
HANWHA_L_00001001-439
1 10438U 24328YH  26075.69965278  .00000000  00000+0  00000-0 0  9996
2 10438  97.5000   0.0000 0000000   0.0000  78.8400 15.21936487    13
HANWHA_L_00001001-440
1 10439U 24889IZ  26075.69965278  .00000000  00000+0  00000-0 0  9999
2 10439  97.5000   0.0000 0000000   0.0000  79.0200 15.21936487    15
HANWHA_L_00001001-441
1 10440U 24409XX  26075.69965278  .00000000  00000+0  00000-0 0  9999
2 10440  97.5000   0.0000 0000000   0.0000  79.2000 15.21936487    17
HANWHA_L_00001001-442
1 10441U 23560XW  26075.69965278  .00000000  00000+0  00000-0 0  9997
2 10441  97.5000   0.0000 0000000   0.0000  79.3800 15.21936487    17
HANWHA_L_00001001-443
1 10442U 26901YZ  26075.69965278  .00000000  00000+0  00000-0 0  9990
2 10442  97.5000   0.0000 0000000   0.0000  79.5600 15.21936487    18
HANWHA_L_00001001-444
1 10443U 24853FN  26075.69965278  .00000000  00000+0  00000-0 0  9995
2 10443  97.5000   0.0000 0000000   0.0000  79.7400 15.21936487    19
HANWHA_L_00001001-445
1 10444U 26745WJ  26075.69965278  .00000000  00000+0  00000-0 0  9998
2 10444  97.5000   0.0000 0000000   0.0000  79.9200 15.21936487    10
HANWHA_L_00001001-446
1 10445U 22556OJ  26075.69965278  .00000000  00000+0  00000-0 0  9995
2 10445  97.5000   0.0000 0000000   0.0000  80.1000 15.21936487    13
HANWHA_L_00001001-447
1 10446U 26833ZR  26075.69965278  .00000000  00000+0  00000-0 0  9998
2 10446  97.5000   0.0000 0000000   0.0000  80.2800 15.21936487    13
HANWHA_L_00001001-448
1 10447U 25068XM  26075.69965278  .00000000  00000+0  00000-0 0  9998
2 10447  97.5000   0.0000 0000000   0.0000  80.4600 15.21936487    14
HANWHA_L_00001001-449
1 10448U 26541AG  26075.69965278  .00000000  00000+0  00000-0 0  9996
2 10448  97.5000   0.0000 0000000   0.0000  80.6400 15.21936487    15
HANWHA_L_00001001-450
1 10449U 26277EQ  26075.69965278  .00000000  00000+0  00000-0 0  9993
2 10449  97.5000   0.0000 0000000   0.0000  80.8200 15.21936487    16
HANWHA_L_00001001-451
1 10450U 24929KW  26075.69965278  .00000000  00000+0  00000-0 0  9997
2 10450  97.5000   0.0000 0000000   0.0000  81.0000 15.21936487    19
HANWHA_L_00001001-452
1 10451U 24925HC  26075.69965278  .00000000  00000+0  00000-0 0  9994
2 10451  97.5000   0.0000 0000000   0.0000  81.1800 15.21936487    19
HANWHA_L_00001001-453
1 10452U 23989YA  26075.69965278  .00000000  00000+0  00000-0 0  9994
2 10452  97.5000   0.0000 0000000   0.0000  81.3600 15.21936487    10
HANWHA_L_00001001-454
1 10453U 24599NB  26075.69965278  .00000000  00000+0  00000-0 0  9993
2 10453  97.5000   0.0000 0000000   0.0000  81.5400 15.21936487    11
HANWHA_L_00001001-455
1 10454U 25082HK  26075.69965278  .00000000  00000+0  00000-0 0  9992
2 10454  97.5000   0.0000 0000000   0.0000  81.7200 15.21936487    12
HANWHA_L_00001001-456
1 10455U 22449XJ  26075.69965278  .00000000  00000+0  00000-0 0  9997
2 10455  97.5000   0.0000 0000000   0.0000  81.9000 15.21936487    13
HANWHA_L_00001001-457
1 10456U 25746IV  26075.69965278  .00000000  00000+0  00000-0 0  9991
2 10456  97.5000   0.0000 0000000   0.0000  82.0800 15.21936487    14
HANWHA_L_00001001-458
1 10457U 26901XW  26075.69965278  .00000000  00000+0  00000-0 0  9996
2 10457  97.5000   0.0000 0000000   0.0000  82.2600 15.21936487    15
HANWHA_L_00001001-459
1 10458U 26545MZ  26075.69965278  .00000000  00000+0  00000-0 0  9991
2 10458  97.5000   0.0000 0000000   0.0000  82.4400 15.21936487    16
HANWHA_L_00001001-460
1 10459U 26651YB  26075.69965278  .00000000  00000+0  00000-0 0  9990
2 10459  97.5000   0.0000 0000000   0.0000  82.6200 15.21936487    17
HANWHA_L_00001001-461
1 10460U 25453JU  26075.69965278  .00000000  00000+0  00000-0 0  9991
2 10460  97.5000   0.0000 0000000   0.0000  82.8000 15.21936487    19
HANWHA_L_00001001-462
1 10461U 26803NF  26075.69965278  .00000000  00000+0  00000-0 0  9992
2 10461  97.5000   0.0000 0000000   0.0000  82.9800 15.21936487    19
HANWHA_L_00001001-463
1 10462U 25490J   26075.69965278  .00000000  00000+0  00000-0 0  9994
2 10462  97.5000   0.0000 0000000   0.0000  83.1600 15.21936487    11
HANWHA_L_00001001-464
1 10463U 24395TK  26075.69965278  .00000000  00000+0  00000-0 0  9998
2 10463  97.5000   0.0000 0000000   0.0000  83.3400 15.21936487    12
HANWHA_L_00001001-465
1 10464U 24787LZ  26075.69965278  .00000000  00000+0  00000-0 0  9994
2 10464  97.5000   0.0000 0000000   0.0000  83.5200 15.21936487    13
HANWHA_L_00001001-466
1 10465U 25106LM  26075.69965278  .00000000  00000+0  00000-0 0  9991
2 10465  97.5000   0.0000 0000000   0.0000  83.7000 15.21936487    14
HANWHA_L_00001001-467
1 10466U 24687PT  26075.69965278  .00000000  00000+0  00000-0 0  9995
2 10466  97.5000   0.0000 0000000   0.0000  83.8800 15.21936487    14
HANWHA_L_00001001-468
1 10467U 23405AE  26075.69965278  .00000000  00000+0  00000-0 0  9993
2 10467  97.5000   0.0000 0000000   0.0000  84.0600 15.21936487    16
HANWHA_L_00001001-469
1 10468U 24875MR  26075.69965278  .00000000  00000+0  00000-0 0  9996
2 10468  97.5000   0.0000 0000000   0.0000  84.2400 15.21936487    17
HANWHA_L_00001001-470
1 10469U 24298FQ  26075.69965278  .00000000  00000+0  00000-0 0  9996
2 10469  97.5000   0.0000 0000000   0.0000  84.4200 15.21936487    18
HANWHA_L_00001001-471
1 10470U 24718GV  26075.69965278  .00000000  00000+0  00000-0 0  9995
2 10470  97.5000   0.0000 0000000   0.0000  84.6000 15.21936487    10
HANWHA_L_00001001-472
1 10471U 24306JM  26075.69965278  .00000000  00000+0  00000-0 0  9999
2 10471  97.5000   0.0000 0000000   0.0000  84.7800 15.21936487    10
HANWHA_L_00001001-473
1 10472U 22090GR  26075.69965278  .00000000  00000+0  00000-0 0  9998
2 10472  97.5000   0.0000 0000000   0.0000  84.9600 15.21936487    11
HANWHA_L_00001001-474
1 10473U 23047ZP  26075.69965278  .00000000  00000+0  00000-0 0  9992
2 10473  97.5000   0.0000 0000000   0.0000  85.1400 15.21936487    13
HANWHA_L_00001001-475
1 10474U 24563HV  26075.69965278  .00000000  00000+0  00000-0 0  9997
2 10474  97.5000   0.0000 0000000   0.0000  85.3200 15.21936487    14
HANWHA_L_00001001-476
1 10475U 23494DK  26075.69965278  .00000000  00000+0  00000-0 0  9990
2 10475  97.5000   0.0000 0000000   0.0000  85.5000 15.21936487    15
HANWHA_L_00001001-477
1 10476U 26592T   26075.69965278  .00000000  00000+0  00000-0 0  9993
2 10476  97.5000   0.0000 0000000   0.0000  85.6800 15.21936487    15
HANWHA_L_00001001-478
1 10477U 23195AN  26075.69965278  .00000000  00000+0  00000-0 0  9990
2 10477  97.5000   0.0000 0000000   0.0000  85.8600 15.21936487    16
HANWHA_L_00001001-479
1 10478U 25837QG  26075.69965278  .00000000  00000+0  00000-0 0  9996
2 10478  97.5000   0.0000 0000000   0.0000  86.0400 15.21936487    18
HANWHA_L_00001001-480
1 10479U 25242ZY  26075.69965278  .00000000  00000+0  00000-0 0  9997
2 10479  97.5000   0.0000 0000000   0.0000  86.2200 15.21936487    19
HANWHA_L_00001001-481
1 10480U 25217JG  26075.69965278  .00000000  00000+0  00000-0 0  9991
2 10480  97.5000   0.0000 0000000   0.0000  86.4000 15.21936487    11
HANWHA_L_00001001-482
1 10481U 24111ZJ  26075.69965278  .00000000  00000+0  00000-0 0  9994
2 10481  97.5000   0.0000 0000000   0.0000  86.5800 15.21936487    11
HANWHA_L_00001001-483
1 10482U 22369XR  26075.69965278  .00000000  00000+0  00000-0 0  9998
2 10482  97.5000   0.0000 0000000   0.0000  86.7600 15.21936487    12
HANWHA_L_00001001-484
1 10483U 25821DO  26075.69965278  .00000000  00000+0  00000-0 0  9995
2 10483  97.5000   0.0000 0000000   0.0000  86.9400 15.21936487    13
HANWHA_L_00001001-485
1 10484U 24240GR  26075.69965278  .00000000  00000+0  00000-0 0  9990
2 10484  97.5000   0.0000 0000000   0.0000  87.1200 15.21936487    15
HANWHA_L_00001001-486
1 10485U 22950OP  26075.69965278  .00000000  00000+0  00000-0 0  9997
2 10485  97.5000   0.0000 0000000   0.0000  87.3000 15.21936487    16
HANWHA_L_00001001-487
1 10486U 24497GR  26075.69965278  .00000000  00000+0  00000-0 0  9996
2 10486  97.5000   0.0000 0000000   0.0000  87.4800 15.21936487    16
HANWHA_L_00001001-488
1 10487U 22797ZX  26075.69965278  .00000000  00000+0  00000-0 0  9998
2 10487  97.5000   0.0000 0000000   0.0000  87.6600 15.21936487    17
HANWHA_L_00001001-489
1 10488U 26568YC  26075.69965278  .00000000  00000+0  00000-0 0  9999
2 10488  97.5000   0.0000 0000000   0.0000  87.8400 15.21936487    18
